IRIDIUM 136             
1 42962U 17061H   24015.84457055  .00000437  00000+0  14902-3 0  9990
2 42962  86.3954  34.3936 0002452  88.9155 271.2321 14.34215425328223
